{
  "type": "FeatureCollection",
  "features": [
    {
      "type": "Feature",
      "properties": {
        "norad_id": 36470,
        "name": "COSMOS 2251 DEB",
        "group": "cosmos-2251-debris",
        "lat": -14.14889614401935,
        "lon": -90.49523099765307,
        "alt_km": 560.0917088025299,
        "timestamp": "2025-12-03T10:52:57.853823+00:00",
        "meta_object_name": "COSMOS 2251 DEB",
        "meta_object_id": "1993-036BBV",
        "meta_epoch": "2025-12-02T03:03:18.136800",
        "meta_mean_motion": 15.05586615,
        "meta_eccentricity": 0.00218493,
        "meta_inclination": 73.8455,
        "meta_ra_of_asc_node": 276.4446,
        "meta_arg_of_pericenter": 104.1241,
        "meta_mean_anomaly": 256.2378,
        "meta_ephemeris_type": 0,
        "meta_classification_type": "U",
        "meta_norad_cat_id": 36470,
        "meta_element_set_no": 999,
        "meta_rev_at_epoch": 65934,
        "meta_bstar": 0.0040110233,
        "meta_mean_motion_dot": 0.00058582,
        "meta_mean_motion_ddot": 0,
        "tle_line1": "1 36470U 93036BBV 25336.12729325  .00058582  00000+0  40110-2 0  9996",
        "tle_line2": "2 36470  73.8455 276.4446 0021849 104.1241 256.2378 15.05586615659346"
      },
      "geometry": {
        "type": "Point",
        "coordinates": [
          -90.49523099765307,
          -14.14889614401935
        ]
      }
    },
    {
      "type": "Feature",
      "properties": {
        "norad_id": 36528,
        "name": "COSMOS 2251 DEB",
        "group": "cosmos-2251-debris",
        "lat": 67.60745652519826,
        "lon": -153.77837520443074,
        "alt_km": 829.5758730733687,
        "timestamp": "2025-12-03T10:52:57.853834+00:00",
        "meta_object_name": "COSMOS 2251 DEB",
        "meta_object_id": "1993-036BCN",
        "meta_epoch": "2025-11-28T19:45:32.756256",
        "meta_mean_motion": 14.30521775,
        "meta_eccentricity": 0.00858193,
        "meta_inclination": 74.0168,
        "meta_ra_of_asc_node": 170.5765,
        "meta_arg_of_pericenter": 223.2164,
        "meta_mean_anomaly": 136.2231,
        "meta_ephemeris_type": 0,
        "meta_classification_type": "U",
        "meta_norad_cat_id": 36528,
        "meta_element_set_no": 999,
        "meta_rev_at_epoch": 64228,
        "meta_bstar": 0.00075224171,
        "meta_mean_motion_dot": 2.015e-05,
        "meta_mean_motion_ddot": 0,
        "tle_line1": "1 36528U 93036BCN 25332.82329579  .00002015  00000+0  75224-3 0  9995",
        "tle_line2": "2 36528  74.0168 170.5765 0085819 223.2164 136.2231 14.30521775642289"
      },
      "geometry": {
        "type": "Point",
        "coordinates": [
          -153.77837520443074,
          67.60745652519826
        ]
      }
    },
    {
      "type": "Feature",
      "properties": {
        "norad_id": 36533,
        "name": "COSMOS 2251 DEB",
        "group": "cosmos-2251-debris",
        "lat": -45.471247739408874,
        "lon": 115.33725429950385,
        "alt_km": 702.3170771514569,
        "timestamp": "2025-12-03T10:52:57.853844+00:00",
        "meta_object_name": "COSMOS 2251 DEB",
        "meta_object_id": "1993-036BCT",
        "meta_epoch": "2025-12-02T10:15:35.914464",
        "meta_mean_motion": 14.49752107,
        "meta_eccentricity": 0.00491246,
        "meta_inclination": 74.0095,
        "meta_ra_of_asc_node": 134.2138,
        "meta_arg_of_pericenter": 285.2045,
        "meta_mean_anomaly": 74.3685,
        "meta_ephemeris_type": 0,
        "meta_classification_type": "U",
        "meta_norad_cat_id": 36533,
        "meta_element_set_no": 999,
        "meta_rev_at_epoch": 84335,
        "meta_bstar": 0.00057659582,
        "meta_mean_motion_dot": 2.227e-05,
        "meta_mean_motion_ddot": 0,
        "tle_line1": "1 36533U 93036BCT 25336.42749901  .00002227  00000+0  57660-3 0  9995",
        "tle_line2": "2 36533  74.0095 134.2138 0049124 285.2045  74.3685 14.49752107843351"
      },
      "geometry": {
        "type": "Point",
        "coordinates": [
          115.33725429950385,
          -45.471247739408874
        ]
      }
    },
    {
      "type": "Feature",
      "properties": {
        "norad_id": 36539,
        "name": "COSMOS 2251 DEB",
        "group": "cosmos-2251-debris",
        "lat": -16.513367085581738,
        "lon": -102.23483761960553,
        "alt_km": 682.0805115861958,
        "timestamp": "2025-12-03T10:52:57.853854+00:00",
        "meta_object_name": "COSMOS 2251 DEB",
        "meta_object_id": "1993-036BCZ",
        "meta_epoch": "2025-12-02T17:31:36.060672",
        "meta_mean_motion": 14.59181201,
        "meta_eccentricity": 0.0027807,
        "meta_inclination": 74.024,
        "meta_ra_of_asc_node": 74.2716,
        "meta_arg_of_pericenter": 220.7981,
        "meta_mean_anomaly": 139.1103,
        "meta_ephemeris_type": 0,
        "meta_classification_type": "U",
        "meta_norad_cat_id": 36539,
        "meta_element_set_no": 999,
        "meta_rev_at_epoch": 83801,
        "meta_bstar": 0.0011189,
        "meta_mean_motion_dot": 5.277e-05,
        "meta_mean_motion_ddot": 0,
        "tle_line1": "1 36539U 93036BCZ 25336.73027848  .00005277  00000+0  11189-2 0  9997",
        "tle_line2": "2 36539  74.0240  74.2716 0027807 220.7981 139.1103 14.59181201838015"
      },
      "geometry": {
        "type": "Point",
        "coordinates": [
          -102.23483761960553,
          -16.513367085581738
        ]
      }
    },
    {
      "type": "Feature",
      "properties": {
        "norad_id": 36540,
        "name": "COSMOS 2251 DEB",
        "group": "cosmos-2251-debris",
        "lat": -6.702772227952086,
        "lon": 20.127367996363628,
        "alt_km": 700.4611218274204,
        "timestamp": "2025-12-03T10:52:57.853864+00:00",
        "meta_object_name": "COSMOS 2251 DEB",
        "meta_object_id": "1993-036BDA",
        "meta_epoch": "2025-12-02T20:51:21.650112",
        "meta_mean_motion": 14.58331663,
        "meta_eccentricity": 0.0015388,
        "meta_inclination": 74.0294,
        "meta_ra_of_asc_node": 199.3109,
        "meta_arg_of_pericenter": 270.0205,
        "meta_mean_anomaly": 89.9197,
        "meta_ephemeris_type": 0,
        "meta_classification_type": "U",
        "meta_norad_cat_id": 36540,
        "meta_element_set_no": 999,
        "meta_rev_at_epoch": 85866,
        "meta_bstar": 0.001344,
        "meta_mean_motion_dot": 6.206e-05,
        "meta_mean_motion_ddot": 0,
        "tle_line1": "1 36540U 93036BDA 25336.86900058  .00006206  00000+0  13440-2 0  9991",
        "tle_line2": "2 36540  74.0294 199.3109 0015388 270.0205  89.9197 14.58331663858665"
      },
      "geometry": {
        "type": "Point",
        "coordinates": [
          20.127367996363628,
          -6.702772227952086
        ]
      }
    },
    {
      "type": "Feature",
      "properties": {
        "norad_id": 36550,
        "name": "COSMOS 2251 DEB",
        "group": "cosmos-2251-debris",
        "lat": -8.566068505868396,
        "lon": -152.930691967562,
        "alt_km": 803.4836413630928,
        "timestamp": "2025-12-03T10:52:57.853874+00:00",
        "meta_object_name": "COSMOS 2251 DEB",
        "meta_object_id": "1993-036BDL",
        "meta_epoch": "2025-12-02T08:00:24.910560",
        "meta_mean_motion": 14.27149643,
        "meta_eccentricity": 0.00787603,
        "meta_inclination": 74.0451,
        "meta_ra_of_asc_node": 211.5637,
        "meta_arg_of_pericenter": 264.4889,
        "meta_mean_anomaly": 94.7272,
        "meta_ephemeris_type": 0,
        "meta_classification_type": "U",
        "meta_norad_cat_id": 36550,
        "meta_element_set_no": 999,
        "meta_rev_at_epoch": 84447,
        "meta_bstar": 0.00078484278,
        "meta_mean_motion_dot": 1.953e-05,
        "meta_mean_motion_ddot": 0,
        "tle_line1": "1 36550U 93036BDL 25336.33362165  .00001953  00000+0  78484-3 0  9999",
        "tle_line2": "2 36550  74.0451 211.5637 0078760 264.4889  94.7272 14.27149643844475"
      },
      "geometry": {
        "type": "Point",
        "coordinates": [
          -152.930691967562,
          -8.566068505868396
        ]
      }
    },
    {
      "type": "Feature",
      "properties": {
        "norad_id": 36551,
        "name": "COSMOS 2251 DEB",
        "group": "cosmos-2251-debris",
        "lat": 53.48328553645982,
        "lon": 56.80276448986308,
        "alt_km": 544.5189121213707,
        "timestamp": "2025-12-03T10:52:57.853885+00:00",
        "meta_object_name": "COSMOS 2251 DEB",
        "meta_object_id": "1993-036BDM",
        "meta_epoch": "2025-12-01T04:16:57.552096",
        "meta_mean_motion": 15.01965558,
        "meta_eccentricity": 0.00505004,
        "meta_inclination": 73.8879,
        "meta_ra_of_asc_node": 38.501,
        "meta_arg_of_pericenter": 349.5182,
        "meta_mean_anomaly": 10.4947,
        "meta_ephemeris_type": 0,
        "meta_classification_type": "U",
        "meta_norad_cat_id": 36551,
        "meta_element_set_no": 999,
        "meta_rev_at_epoch": 66758,
        "meta_bstar": 0.0014137691,
        "meta_mean_motion_dot": 0.00019039,
        "meta_mean_motion_ddot": 0,
        "tle_line1": "1 36551U 93036BDM 25335.17844389  .00019039  00000+0  14138-2 0  9993",
        "tle_line2": "2 36551  73.8879  38.5010 0050500 349.5182  10.4947 15.01965558667585"
      },
      "geometry": {
        "type": "Point",
        "coordinates": [
          56.80276448986308,
          53.48328553645982
        ]
      }
    }
  ]
}